[
    {
        "Altitude(m)": 624792.7414873249,
        "Argument of Periapsis(deg)": 0.0,
        "Eccentricity": 0.0,
        "Inclination(deg)": 60.0,
        "Latitude(deg)": -59.14699484921048,
        "Longitude(deg)": 124.02631719977843,
        "Mean Anomaly(deg)": -98.18180000000004,
        "RAAN(deg)": 330.0,
        "Satellite Name": "Test1 1468",
        "Satellite Number": 1468,
        "Semi-Major Axis(m)": 6980739.136638005,
        "Time(s)": 0
    },
    {
        "Altitude(m)": 624842.1339415549,
        "Argument of Periapsis(deg)": 0.00010418945913296404,
        "Eccentricity": 0.0,
        "Inclination(deg)": 60.0,
        "Latitude(deg)": -59.28907947021916,
        "Longitude(deg)": 125.15581773267174,
        "Mean Anomaly(deg)": -97.56169385453819,
        "RAAN(deg)": 329.9995799508602,
        "Satellite Name": "Test1 1468",
        "Satellite Number": 1468,
        "Semi-Major Axis(m)": 6980739.136638005,
        "Time(s)": 10
    },
    {
        "Altitude(m)": 624887.7021450825,
        "Argument of Periapsis(deg)": 0.0002083789182659281,
        "Eccentricity": 0.0,
        "Inclination(deg)": 60.0,
        "Latitude(deg)": -59.42055328478322,
        "Longitude(deg)": 126.29473883134241,
        "Mean Anomaly(deg)": -96.94158770907633,
        "RAAN(deg)": 329.9991599017205,
        "Satellite Name": "Test1 1468",
        "Satellite Number": 1468,
        "Semi-Major Axis(m)": 6980739.136638005,
        "Time(s)": 20
    },
    {
        "Altitude(m)": 624929.4281343769,
        "Argument of Periapsis(deg)": 0.00031256837739889213,
        "Eccentricity": 0.0,
        "Inclination(deg)": 60.0,
        "Latitude(deg)": -59.54127899141898,
        "Longitude(deg)": 127.44245819840478,
        "Mean Anomaly(deg)": -96.32148156361453,
        "RAAN(deg)": 329.9987398525808,
        "Satellite Name": "Test1 1468",
        "Satellite Number": 1468,
        "Semi-Major Axis(m)": 6980739.136638005,
        "Time(s)": 30
    },
    {
        "Altitude(m)": 624967.2954570771,
        "Argument of Periapsis(deg)": 0.0004167578365318562,
        "Eccentricity": 0.0,
        "Inclination(deg)": 60.0,
        "Latitude(deg)": -59.65112842192728,
        "Longitude(deg)": 128.5983185518565,
        "Mean Anomaly(deg)": -95.70137541815268,
        "RAAN(deg)": 329.998319803441,
        "Satellite Name": "Test1 1468",
        "Satellite Number": 1468,
        "Semi-Major Axis(m)": 6980739.136638005,
        "Time(s)": 40
    },
    {
        "Altitude(m)": 625001.2891789145,
        "Argument of Periapsis(deg)": 0.0005209472956648203,
        "Eccentricity": 0.0,
        "Inclination(deg)": 60.0,
        "Latitude(deg)": -59.749983180479234,
        "Longitude(deg)": 129.7616284617425,
        "Mean Anomaly(deg)": -95.08126927269083,
        "RAAN(deg)": 329.9978997543013,
        "Satellite Name": "Test1 1468",
        "Satellite Number": 1468,
        "Semi-Major Axis(m)": 6980739.136638005,
        "Time(s)": 50
    },
    {
        "Altitude(m)": 625031.3958900165,
        "Argument of Periapsis(deg)": 0.0006251367547977843,
        "Eccentricity": 0.0,
        "Inclination(deg)": 60.0,
        "Latitude(deg)": -59.83773524963082,
        "Longitude(deg)": 130.93166502438453,
        "Mean Anomaly(deg)": -94.46116312722897,
        "RAAN(deg)": 329.99747970516154,
        "Satellite Name": "Test1 1468",
        "Satellite Number": 1468,
        "Semi-Major Axis(m)": 6980739.136638005,
        "Time(s)": 60
    },
    {
        "Altitude(m)": 625057.6037105556,
        "Argument of Periapsis(deg)": 0.0007293262139307483,
        "Eccentricity": 0.0,
        "Inclination(deg)": 60.0,
        "Latitude(deg)": -59.91428755642924,
        "Longitude(deg)": 132.10767685106762,
        "Mean Anomaly(deg)": -93.84105698176717,
        "RAAN(deg)": 329.9970596560218,
        "Satellite Name": "Test1 1468",
        "Satellite Number": 1468,
        "Semi-Major Axis(m)": 6980739.136638005,
        "Time(s)": 70
    },
    {
        "Altitude(m)": 625079.9022957432,
        "Argument of Periapsis(deg)": 0.0008335156730637124,
        "Eccentricity": 0.0,
        "Inclination(deg)": 60.0,
        "Latitude(deg)": -59.979554491979535,
        "Longitude(deg)": 133.28888584241446,
        "Mean Anomaly(deg)": -93.22095083630532,
        "RAAN(deg)": 329.99663960688207,
        "Satellite Name": "Test1 1468",
        "Satellite Number": 1468,
        "Semi-Major Axis(m)": 6980739.136638005,
        "Time(s)": 80
    },
    {
        "Altitude(m)": 625098.2828401932,
        "Argument of Periapsis(deg)": 0.0009377051321966765,
        "Eccentricity": 0.0,
        "Inclination(deg)": 60.0,
        "Latitude(deg)": -60.03346237819726,
        "Longitude(deg)": 134.47449075278547,
        "Mean Anomaly(deg)": -92.60084469084347,
        "RAAN(deg)": 329.9962195577423,
        "Satellite Name": "Test1 1468",
        "Satellite Number": 1468,
        "Semi-Major Axis(m)": 6980739.136638005,
        "Time(s)": 90
    },
    {
        "Altitude(m)": 625112.7380816343,
        "Argument of Periapsis(deg)": 0.0010418945913296407,
        "Eccentricity": 0.0,
        "Inclination(deg)": 60.0,
        "Latitude(deg)": -60.07594987595421,
        "Longitude(deg)": 135.6636710051414,
        "Mean Anomaly(deg)": -91.98073854538161,
        "RAAN(deg)": 329.99579950860254,
        "Satellite Name": "Test1 1468",
        "Satellite Number": 1468,
        "Semi-Major Axis(m)": 6980739.136638005,
        "Time(s)": 100
    },
    {
        "Altitude(m)": 625123.2623039525,
        "Argument of Periapsis(deg)": 0.0011460840504626045,
        "Eccentricity": 0.0,
        "Inclination(deg)": 60.0,
        "Latitude(deg)": -60.10696832943272,
        "Longitude(deg)": 136.85558921186126,
        "Mean Anomaly(deg)": -91.36063239991981,
        "RAAN(deg)": 329.99537945946287,
        "Satellite Name": "Test1 1468",
        "Satellite Number": 1468,
        "Semi-Major Axis(m)": 6980739.136638005,
        "Time(s)": 110
    },
    {
        "Altitude(m)": 625129.8513396081,
        "Argument of Periapsis(deg)": 0.0012502735095955685,
        "Eccentricity": 0.0,
        "Inclination(deg)": 60.0,
        "Latitude(deg)": -60.1264820422361,
        "Longitude(deg)": 138.04939539118988,
        "Mean Anomaly(deg)": -90.74052625445796,
        "RAAN(deg)": 329.9949594103231,
        "Satellite Name": "Test1 1468",
        "Satellite Number": 1468,
        "Semi-Major Axis(m)": 6980739.136638005,
        "Time(s)": 120
    },
    {
        "Altitude(m)": 625132.5025714,
        "Argument of Periapsis(deg)": 0.0013544629687285324,
        "Eccentricity": 0.0,
        "Inclination(deg)": 60.0,
        "Latitude(deg)": -60.13446848162586,
        "Longitude(deg)": 139.2442313265991,
        "Mean Anomaly(deg)": -90.12042010899621,
        "RAAN(deg)": 329.99453936118334,
        "Satellite Name": "Test1 1468",
        "Satellite Number": 1468,
        "Semi-Major Axis(m)": 6980739.136638005,
        "Time(s)": 130
    },
    {
        "Altitude(m)": 625131.2149335621,
        "Argument of Periapsis(deg)": 0.0014586524278614966,
        "Eccentricity": 0.0,
        "Inclination(deg)": 60.0,
        "Latitude(deg)": -60.130918408169265,
        "Longitude(deg)": 140.43923351334624,
        "Mean Anomaly(deg)": -89.50031396353435,
        "RAAN(deg)": 329.99411931204355,
        "Satellite Name": "Test1 1468",
        "Satellite Number": 1468,
        "Semi-Major Axis(m)": 6980739.136638005,
        "Time(s)": 140
    },
    {
        "Altitude(m)": 625125.9889122023,
        "Argument of Periapsis(deg)": 0.0015628418869944607,
        "Eccentricity": 0.0,
        "Inclination(deg)": 60.0,
        "Latitude(deg)": -60.115835929064225,
        "Longitude(deg)": 141.63353767298776,
        "Mean Anomaly(deg)": -88.88020781807256,
        "RAAN(deg)": 329.9936992629039,
        "Satellite Name": "Test1 1468",
        "Satellite Number": 1468,
        "Semi-Major Axis(m)": 6980739.136638005,
        "Time(s)": 150
    },
    {
        "Altitude(m)": 625116.8265451286,
        "Argument of Periapsis(deg)": 0.0016670313461274247,
        "Eccentricity": 0.0,
        "Inclination(deg)": 60.0,
        "Latitude(deg)": -60.089238474422125,
        "Longitude(deg)": 142.82628327682482,
        "Mean Anomaly(deg)": -88.2601016726107,
        "RAAN(deg)": 329.99327921376414,
        "Satellite Name": "Test1 1468",
        "Satellite Number": 1468,
        "Semi-Major Axis(m)": 6980739.136638005,
        "Time(s)": 160
    },
    {
        "Altitude(m)": 625103.7314209616,
        "Argument of Periapsis(deg)": 0.0017712208052603888,
        "Eccentricity": 0.0,
        "Inclination(deg)": 60.0,
        "Latitude(deg)": -60.05115669682613,
        "Longitude(deg)": 144.01661651905803,
        "Mean Anomaly(deg)": -87.63999552714894,
        "RAAN(deg)": 329.99285916462435,
        "Satellite Name": "Test1 1468",
        "Satellite Number": 1468,
        "Semi-Major Axis(m)": 6980739.136638005,
        "Time(s)": 170
    },
    {
        "Altitude(m)": 625086.7086776613,
        "Argument of Periapsis(deg)": 0.001875410264393353,
        "Eccentricity": 0.0,
        "Inclination(deg)": 60.0,
        "Latitude(deg)": -60.00163429551728,
        "Longitude(deg)": 145.2036947198461,
        "Mean Anomaly(deg)": -87.0198893816871,
        "RAAN(deg)": 329.9924391154846,
        "Satellite Name": "Test1 1468",
        "Satellite Number": 1468,
        "Semi-Major Axis(m)": 6980739.136638005,
        "Time(s)": 180
    },
    {
        "Altitude(m)": 625065.7650003392,
        "Argument of Periapsis(deg)": 0.0019795997235263173,
        "Eccentricity": 0.0,
        "Inclination(deg)": 60.0,
        "Latitude(deg)": -59.94072776755058,
        "Longitude(deg)": 146.3866906016209,
        "Mean Anomaly(deg)": -86.3997832362253,
        "RAAN(deg)": 329.99201906634494,
        "Satellite Name": "Test1 1468",
        "Satellite Number": 1468,
        "Semi-Major Axis(m)": 6980739.136638005,
        "Time(s)": 190
    }
]